{
  "type": "FeatureCollection",
  "features": [
    {
      "type": "Feature",
      "properties": {
        "kind": "baseline",
        "metres": 1431,
        "minutes": 18.4,
        "barriers_crossed": 0,
        "barrier_ids": []
      },
      "geometry": {
        "type": "LineString",
        "coordinates": [
          [
            -122.4195718,
            37.7649774
          ],
          [
            -122.4194248,
            37.7635273
          ],
          [
            -122.4194051,
            37.7633644
          ],
          [
            -122.4192652,
            37.7619211
          ],
          [
            -122.419258,
            37.7617727
          ],
          [
            -122.4191193,
            37.7603252
          ],
          [
            -122.419103,
            37.7601789
          ],
          [
            -122.4190381,
            37.759342
          ],
          [
            -122.4189689,
            37.7587224
          ],
          [
            -122.4189508,
            37.758581
          ],
          [
            -122.4188107,
            37.7571217
          ],
          [
            -122.4187906,
            37.7569851
          ],
          [
            -122.4186758,
            37.7555327
          ],
          [
            -122.4186438,
            37.7553785
          ],
          [
            -122.418515,
            37.7539275
          ],
          [
            -122.4184872,
            37.7537888
          ],
          [
            -122.4183589,
            37.7523281
          ],
          [
            -122.4183327,
            37.7521751
          ]
        ]
      }
    },
    {
      "type": "Feature",
      "properties": {
        "kind": "accessible",
        "metres": 1431,
        "minutes": 18.4,
        "barriers_crossed": 0,
        "barrier_ids": []
      },
      "geometry": {
        "type": "LineString",
        "coordinates": [
          [
            -122.4195718,
            37.7649774
          ],
          [
            -122.4194248,
            37.7635273
          ],
          [
            -122.4194051,
            37.7633644
          ],
          [
            -122.4192652,
            37.7619211
          ],
          [
            -122.419258,
            37.7617727
          ],
          [
            -122.4191193,
            37.7603252
          ],
          [
            -122.419103,
            37.7601789
          ],
          [
            -122.4190381,
            37.759342
          ],
          [
            -122.4189689,
            37.7587224
          ],
          [
            -122.4189508,
            37.758581
          ],
          [
            -122.4188107,
            37.7571217
          ],
          [
            -122.4187906,
            37.7569851
          ],
          [
            -122.4186758,
            37.7555327
          ],
          [
            -122.4186438,
            37.7553785
          ],
          [
            -122.418515,
            37.7539275
          ],
          [
            -122.4184872,
            37.7537888
          ],
          [
            -122.4183589,
            37.7523281
          ],
          [
            -122.4183327,
            37.7521751
          ]
        ]
      }
    }
  ]
}